OBJECT_NAME,OBJECT_ID,EPOCH,MEAN_MOTION,ECCENTRICITY,INCLINATION,RA_OF_ASC_NODE,ARG_OF_PERICENTER,MEAN_ANOMALY,EPHEMERIS_TYPE,CLASSIFICATION_TYPE,NORAD_CAT_ID,ELEMENT_SET_NO,REV_AT_EPOCH,BSTAR,MEAN_MOTION_DOT,MEAN_MOTION_DDOT
STARLINK-34823,2025-190E,2026-06-16T00:50:31.712928,15.30218974,.0001252,53.1588,71.2812,86.3561,273.7583,0,U,65355,999,4481,.13988E-2,.41325E-3,0
STARLINK-34680,2025-190F,2026-06-16T00:11:09.636288,15.30203613,.0001323,53.1597,71.8202,91.6012,268.5141,0,U,65356,999,4433,.44574E-3,.12867E-3,0
STARLINK-34860,2025-190G,2026-06-15T23:56:29.941728,15.34393492,.0001483,53.1617,71.0564,98.6560,261.4610,0,U,65357,999,4434,.58287E-3,.19364E-3,0
STARLINK-34782,2025-190H,2026-06-16T00:18:34.358688,15.30233598,.0001411,53.1604,71.1459,107.7551,252.3604,0,U,65358,999,4481,.90011E-3,.26422E-3,0
STARLINK-34760,2025-190J,2026-06-16T00:35:18.551328,15.30203471,.0001004,53.1578,71.2108,71.1767,288.9342,0,U,65359,999,4434,.59415E-3,.17281E-3,0
STARLINK-34826,2025-190K,2026-06-16T00:32:43.592064,15.34396583,.000095,53.1589,70.4987,71.3373,288.7732,0,U,65360,999,4435,.56641E-3,.18807E-3,0
STARLINK-34800,2025-190L,2026-06-16T04:59:13.896672,15.30200696,.0001209,53.1597,70.2239,84.6570,275.4569,0,U,65361,999,4437,.45499E-3,.1314E-3,0
STARLINK-34817,2025-190M,2026-06-16T00:17:34.393632,15.34398820,.0001044,53.1592,70.4326,89.7014,270.4108,0,U,65362,999,4482,.91225E-3,.3057E-3,0
STARLINK-34797,2025-190N,2026-06-15T23:47:24.213408,15.34390469,.0001299,53.1614,71.0145,93.7447,266.3704,0,U,65363,999,4481,.50246E-3,.16633E-3,0
STARLINK-34729,2025-190P,2026-06-16T00:55:03.744192,15.30199605,.000132,53.1595,71.3021,94.0388,266.0764,0,U,65364,999,4523,.17496E-3,.4826E-4,0
STARLINK-34710,2025-190Q,2026-06-16T00:12:40.866048,15.30207779,.0001349,53.1607,71.8290,76.2077,283.9074,0,U,65365,999,4433,.73208E-3,.21391E-3,0
STARLINK-34943,2025-190R,2026-06-15T23:50:25.003680,15.34394440,.0001325,53.1615,71.0253,75.9438,284.1712,0,U,65366,999,4434,-.81382E-3,-.27767E-3,0
STARLINK-34946,2025-190S,2026-06-15T23:38:19.046688,15.34393636,.0001462,53.1613,70.9705,83.7451,276.3718,0,U,65367,999,4481,.48731E-3,.1612E-3,0
STARLINK-34259,2025-190T,2026-06-16T01:03:00.419904,15.34390956,.0001171,53.1601,70.6307,82.5270,277.5865,0,U,65368,999,4482,-.43641E-3,-.15087E-3,0
STARLINK-34913,2025-190U,2026-06-16T00:05:34.437984,15.34373103,.0001088,53.1621,71.0940,60.0786,300.0324,0,U,65369,999,4481,.6238E-3,.2074E-3,0
STARLINK-34870,2025-190V,2026-06-15T23:22:31.950624,15.30194428,.0001478,53.1586,71.6127,92.2307,267.8863,0,U,65370,999,4433,.54016E-3,.1567E-3,0
STARLINK-34869,2025-190W,2026-06-16T00:59:37.209696,15.30204621,.0001317,53.1597,71.3150,108.0696,252.0448,0,U,65371,999,4481,.4958E-3,.14356E-3,0
STARLINK-34903,2025-190X,2026-06-16T00:41:23.154144,15.30201050,.0001109,53.1584,71.2322,93.9431,266.1696,0,U,65372,999,4481,.43423E-3,.12524E-3,0
STARLINK-34891,2025-190Y,2026-06-16T00:35:45.018240,15.34393721,.0001211,53.1583,70.5004,90.0830,270.0311,0,U,65373,999,4430,.77312E-3,.2583E-3,0
STARLINK-34900,2025-190Z,2026-06-16T00:45:56.670624,15.30204115,.0001236,53.1589,71.2534,97.2285,262.8856,0,U,65374,999,4429,.46457E-3,.13427E-3,0
STARLINK-34305,2025-190AA,2026-06-16T00:42:52.904736,15.30167153,.0001533,53.1593,71.2374,63.9843,296.1315,0,U,65375,999,4481,.35874E-3,.1027E-3,0
STARLINK-34249,2025-190AB,2026-06-16T00:23:38.116896,15.34395244,.000119,53.1592,70.4489,90.1224,269.9915,0,U,65376,999,4524,.94289E-3,.3161E-3,0
STARLINK-34879,2025-190AC,2026-06-16T00:30:44.911296,15.30201910,.0001092,53.1588,71.1935,117.3312,242.7800,0,U,65377,999,4481,.58416E-3,.16983E-3,0
STARLINK-34912,2025-190AD,2026-06-16T00:21:38.215296,15.30212441,.0001092,53.1596,71.1457,87.8128,272.2998,0,U,65378,999,4481,.57382E-3,.16681E-3,0
STARLINK-34985,2025-191A,2026-06-16T03:56:36.485952,15.05654332,.0002685,97.3588,37.5796,113.4276,246.7234,0,U,65379,999,4508,-.16244E-3,-.2401E-4,0
STARLINK-35051,2025-191B,2026-06-16T04:40:29.283168,15.05656671,.0002138,97.3550,37.6929,88.2485,271.8988,0,U,65380,999,4510,.24746E-3,.3516E-4,0
STARLINK-35028,2025-191C,2026-06-16T04:16:33.989088,15.05659786,.000221,97.3563,37.7191,92.2535,267.8945,0,U,65381,999,4509,.25002E-3,.3553E-4,0
STARLINK-35032,2025-191D,2026-06-16T03:32:41.915904,15.05655475,.0002918,97.3558,37.6033,85.9144,274.2417,0,U,65382,999,4508,.12576E-3,.1758E-4,0
STARLINK-35054,2025-191E,2026-06-16T04:08:35.582784,15.05646242,.0002386,97.3547,37.5710,95.8101,264.3398,0,U,65383,999,4508,.26944E-3,.3832E-4,0
STARLINK-35012,2025-191F,2026-06-16T03:44:39.479136,15.05656082,.0002724,97.3552,37.5922,91.2381,268.9159,0,U,65384,999,4508,.10487E-3,.1456E-4,0
