STARLINK-34823          
1 65355U 25190E   26167.03508927  .00041325  00000+0  13988-2 0  9992
2 65355  53.1588  71.2812 0001252  86.3561 273.7583 15.30218974 44818
STARLINK-34680          
1 65356U 25190F   26167.00775042  .00012867  00000+0  44574-3 0  9999
2 65356  53.1597  71.8202 0001323  91.6012 268.5141 15.30203613 44330
STARLINK-34860          
1 65357U 25190G   26166.99756877  .00019364  00000+0  58287-3 0  9997
2 65357  53.1617  71.0564 0001483  98.6560 261.4610 15.34393492 44342
STARLINK-34782          
1 65358U 25190H   26167.01289767  .00026422  00000+0  90011-3 0  9995
2 65358  53.1604  71.1459 0001411 107.7551 252.3604 15.30233598 44816
STARLINK-34760          
1 65359U 25190J   26167.02452027  .00017281  00000+0  59415-3 0  9994
2 65359  53.1578  71.2108 0001004  71.1767 288.9342 15.30203471 44349
STARLINK-34826          
1 65360U 25190K   26167.02272676  .00018807  00000+0  56641-3 0  9999
2 65360  53.1589  70.4987 0000950  71.3373 288.7732 15.34396583 44356
STARLINK-34800          
1 65361U 25190L   26167.20779973  .00013140  00000+0  45499-3 0  9996
2 65361  53.1597  70.2239 0001209  84.6570 275.4569 15.30200696 44376
STARLINK-34817          
1 65362U 25190M   26167.01220363  .00030570  00000+0  91225-3 0  9994
2 65362  53.1592  70.4326 0001044  89.7014 270.4108 15.34398820 44822
STARLINK-34797          
1 65363U 25190N   26166.99125247  .00016633  00000+0  50246-3 0  9998
2 65363  53.1614  71.0145 0001299  93.7447 266.3704 15.34390469 44817
STARLINK-34729          
1 65364U 25190P   26167.03823778  .00004826  00000+0  17496-3 0  9990
2 65364  53.1595  71.3021 0001320  94.0388 266.0764 15.30199605 45230
STARLINK-34710          
1 65365U 25190Q   26167.00880632  .00021391  00000+0  73208-3 0  9999
2 65365  53.1607  71.8290 0001349  76.2077 283.9074 15.30207779 44330
STARLINK-34943          
1 65366U 25190R   26166.99334495 -.00027767  00000+0 -81382-3 0  9995
2 65366  53.1615  71.0253 0001325  75.9438 284.1712 15.34394440 44341
STARLINK-34946          
1 65367U 25190S   26166.98494267  .00016120  00000+0  48731-3 0  9999
2 65367  53.1613  70.9705 0001462  83.7451 276.3718 15.34393636 44811
STARLINK-34259          
1 65368U 25190T   26167.04375486 -.00015087  00000+0 -43641-3 0  9997
2 65368  53.1601  70.6307 0001171  82.5270 277.5865 15.34390956 44826
STARLINK-34913          
1 65369U 25190U   26167.00387081  .00020740  00000+0  62380-3 0  9999
2 65369  53.1621  71.0940 0001088  60.0786 300.0324 15.34373103 44813
STARLINK-34870          
1 65370U 25190V   26166.97398091  .00015670  00000+0  54016-3 0  9992
2 65370  53.1586  71.6127 0001478  92.2307 267.8863 15.30194428 44339
STARLINK-34869          
1 65371U 25190W   26167.04140289  .00014356  00000+0  49580-3 0  9996
2 65371  53.1597  71.3150 0001317 108.0696 252.0448 15.30204621 44819
STARLINK-34903          
1 65372U 25190X   26167.02874021  .00012524  00000+0  43423-3 0  9998
2 65372  53.1584  71.2322 0001109  93.9431 266.1696 15.30201050 44818
STARLINK-34891          
1 65373U 25190Y   26167.02482660  .00025830  00000+0  77312-3 0  9991
2 65373  53.1583  70.5004 0001211  90.0830 270.0311 15.34393721 44305
STARLINK-34900          
1 65374U 25190Z   26167.03190591  .00013427  00000+0  46457-3 0  9997
2 65374  53.1589  71.2534 0001236  97.2285 262.8856 15.30204115 44293
STARLINK-34305          
1 65375U 25190AA  26167.02977899  .00010270  00000+0  35874-3 0  9995
2 65375  53.1593  71.2374 0001533  63.9843 296.1315 15.30167153 44819
STARLINK-34249          
1 65376U 25190AB  26167.01641339  .00031610  00000+0  94289-3 0  9998
2 65376  53.1592  70.4489 0001190  90.1224 269.9915 15.34395244 45241
STARLINK-34879          
1 65377U 25190AC  26167.02135314  .00016983  00000+0  58416-3 0  9999
2 65377  53.1588  71.1935 0001092 117.3312 242.7800 15.30201910 44818
STARLINK-34912          
1 65378U 25190AD  26167.01502564  .00016681  00000+0  57382-3 0  9990
2 65378  53.1596  71.1457 0001092  87.8128 272.2998 15.30212441 44810
STARLINK-34985          
1 65379U 25191A   26167.16431118 -.00002401  00000+0 -16244-3 0  9993
2 65379  97.3588  37.5796 0002685 113.4276 246.7234 15.05654332 45083
STARLINK-35051          
1 65380U 25191B   26167.19478337  .00003516  00000+0  24746-3 0  9994
2 65380  97.3550  37.6929 0002138  88.2485 271.8988 15.05656671 45103
STARLINK-35028          
1 65381U 25191C   26167.17817117  .00003553  00000+0  25002-3 0  9993
2 65381  97.3563  37.7191 0002210  92.2535 267.8945 15.05659786 45098
STARLINK-35032          
1 65382U 25191D   26167.14770736  .00001758  00000+0  12576-3 0  9993
2 65382  97.3558  37.6033 0002918  85.9144 274.2417 15.05655475 45083
STARLINK-35054          
1 65383U 25191E   26167.17263406  .00003832  00000+0  26944-3 0  9997
2 65383  97.3547  37.5710 0002386  95.8101 264.3398 15.05646242 45085
STARLINK-35012          
1 65384U 25191F   26167.15601249  .00001456  00000+0  10487-3 0  9992
2 65384  97.3552  37.5922 0002724  91.2381 268.9159 15.05656082 45081
